CCSDS_OMM_VERS = 2.0
CREATION_DATE  = 
ORIGINATOR     = 

OBJECT_NAME    = UNKNOWN
OBJECT_ID      = 
CENTER_NAME    = EARTH
REF_FRAME      = TEME
TIME_SYSTEM    = UTC
MEAN_ELEMENT_THEORY = SGP/SGP4

EPOCH          = 2025-12-07T15:17:57.333696
MEAN_MOTION    = 14.16222393
ECCENTRICITY   = .0083166
INCLINATION    = 99.0243
RA_OF_ASC_NODE = 50.4311
ARG_OF_PERICENTER = 55.1531
MEAN_ANOMALY   = 305.7428

EPHEMERIS_TYPE = 0
CLASSIFICATION_TYPE = U
NORAD_CAT_ID   = 89493
ELEMENT_SET_NO = 999
REV_AT_EPOCH   = 46322
BSTAR          = .21861E-2
MEAN_MOTION_DOT = .4435E-4
MEAN_MOTION_DDOT = 0

CCSDS_OMM_VERS = 2.0
CREATION_DATE  = 
ORIGINATOR     = 

OBJECT_NAME    = UNKNOWN
OBJECT_ID      = 
CENTER_NAME    = EARTH
REF_FRAME      = TEME
TIME_SYSTEM    = UTC
MEAN_ELEMENT_THEORY = SGP/SGP4

EPOCH          = 2025-12-04T15:41:01.071168
MEAN_MOTION    = 14.16129144
ECCENTRICITY   = .008176
INCLINATION    = 99.0287
RA_OF_ASC_NODE = 47.2983
ARG_OF_PERICENTER = 63.9799
MEAN_ANOMALY   = 296.9765

EPHEMERIS_TYPE = 0
CLASSIFICATION_TYPE = U
NORAD_CAT_ID   = 89494
ELEMENT_SET_NO = 999
REV_AT_EPOCH   = 46265
BSTAR          = .27566E-2
MEAN_MOTION_DOT = .5588E-4
MEAN_MOTION_DDOT = 0

CCSDS_OMM_VERS = 2.0
CREATION_DATE  = 
ORIGINATOR     = 

OBJECT_NAME    = UNKNOWN
OBJECT_ID      = 
CENTER_NAME    = EARTH
REF_FRAME      = TEME
TIME_SYSTEM    = UTC
MEAN_ELEMENT_THEORY = SGP/SGP4

EPOCH          = 2025-12-06T07:05:18.110400
MEAN_MOTION    = 12.96091868
ECCENTRICITY   = .00292855
INCLINATION    = 90.2276
RA_OF_ASC_NODE = 343.7874
ARG_OF_PERICENTER = 265.3813
MEAN_ANOMALY   = 94.3962

EPHEMERIS_TYPE = 0
CLASSIFICATION_TYPE = U
NORAD_CAT_ID   = 270000
ELEMENT_SET_NO = 999
REV_AT_EPOCH   = 28510
BSTAR          = .14567059E-2
MEAN_MOTION_DOT = .422E-5
MEAN_MOTION_DDOT = 0

CCSDS_OMM_VERS = 2.0
CREATION_DATE  = 
ORIGINATOR     = 

OBJECT_NAME    = UNKNOWN
OBJECT_ID      = 
CENTER_NAME    = EARTH
REF_FRAME      = TEME
TIME_SYSTEM    = UTC
MEAN_ELEMENT_THEORY = SGP/SGP4

EPOCH          = 2025-12-07T14:07:16.321440
MEAN_MOTION    = 12.45682254
ECCENTRICITY   = .00442653
INCLINATION    = 101.8205
RA_OF_ASC_NODE = 89.8807
ARG_OF_PERICENTER = 224.7264
MEAN_ANOMALY   = 135.0230

EPHEMERIS_TYPE = 0
CLASSIFICATION_TYPE = U
NORAD_CAT_ID   = 270001
ELEMENT_SET_NO = 999
REV_AT_EPOCH   = 27429
BSTAR          = .14544407E-2
MEAN_MOTION_DOT = .165E-5
MEAN_MOTION_DDOT = 0

CCSDS_OMM_VERS = 2.0
CREATION_DATE  = 
ORIGINATOR     = 

OBJECT_NAME    = UNKNOWN
OBJECT_ID      = 
CENTER_NAME    = EARTH
REF_FRAME      = TEME
TIME_SYSTEM    = UTC
MEAN_ELEMENT_THEORY = SGP/SGP4

EPOCH          = 2025-12-05T20:39:14.789376
MEAN_MOTION    = 13.06543366
ECCENTRICITY   = .05136218
INCLINATION    = 99.6679
RA_OF_ASC_NODE = 19.3206
ARG_OF_PERICENTER = 255.0283
MEAN_ANOMALY   = 99.3443

EPHEMERIS_TYPE = 0
CLASSIFICATION_TYPE = U
NORAD_CAT_ID   = 270003
ELEMENT_SET_NO = 999
REV_AT_EPOCH   = 28644
BSTAR          = .44119417E-2
MEAN_MOTION_DOT = .2724E-4
MEAN_MOTION_DDOT = 0

CCSDS_OMM_VERS = 2.0
CREATION_DATE  = 
ORIGINATOR     = 

OBJECT_NAME    = UNKNOWN
OBJECT_ID      = 
CENTER_NAME    = EARTH
REF_FRAME      = TEME
TIME_SYSTEM    = UTC
MEAN_ELEMENT_THEORY = SGP/SGP4

EPOCH          = 2025-12-09T02:50:11.840640
MEAN_MOTION    = 12.23853959
ECCENTRICITY   = .01645285
INCLINATION    = 101.6987
RA_OF_ASC_NODE = 127.9584
ARG_OF_PERICENTER = 167.6807
MEAN_ANOMALY   = 192.8344

EPHEMERIS_TYPE = 0
CLASSIFICATION_TYPE = U
NORAD_CAT_ID   = 270004
ELEMENT_SET_NO = 999
REV_AT_EPOCH   = 26973
BSTAR          = .10786795E-2
MEAN_MOTION_DOT = .82E-6
MEAN_MOTION_DDOT = 0

CCSDS_OMM_VERS = 2.0
CREATION_DATE  = 
ORIGINATOR     = 

OBJECT_NAME    = UNKNOWN
OBJECT_ID      = 
CENTER_NAME    = EARTH
REF_FRAME      = TEME
TIME_SYSTEM    = UTC
MEAN_ELEMENT_THEORY = SGP/SGP4

EPOCH          = 2025-12-08T06:17:00.403008
MEAN_MOTION    = 12.16553532
ECCENTRICITY   = .03599451
INCLINATION    = 103.0689
RA_OF_ASC_NODE = 171.5430
ARG_OF_PERICENTER = 182.2583
MEAN_ANOMALY   = 177.6846

EPHEMERIS_TYPE = 0
CLASSIFICATION_TYPE = U
NORAD_CAT_ID   = 270005
ELEMENT_SET_NO = 999
REV_AT_EPOCH   = 26707
BSTAR          = .17404492E-1
MEAN_MOTION_DOT = .2066E-4
MEAN_MOTION_DDOT = 0

CCSDS_OMM_VERS = 2.0
CREATION_DATE  = 
ORIGINATOR     = 

OBJECT_NAME    = UNKNOWN
OBJECT_ID      = 
CENTER_NAME    = EARTH
REF_FRAME      = TEME
TIME_SYSTEM    = UTC
MEAN_ELEMENT_THEORY = SGP/SGP4

EPOCH          = 2025-12-08T15:35:29.095584
MEAN_MOTION    = 12.38820963
ECCENTRICITY   = .0093777
INCLINATION    = 102.2533
RA_OF_ASC_NODE = 304.7836
ARG_OF_PERICENTER = 280.1300
MEAN_ANOMALY   = 78.9194

EPHEMERIS_TYPE = 0
CLASSIFICATION_TYPE = U
NORAD_CAT_ID   = 270006
ELEMENT_SET_NO = 999
REV_AT_EPOCH   = 27298
BSTAR          = .1435737E-3
MEAN_MOTION_DOT = -.27E-6
MEAN_MOTION_DDOT = 0

CCSDS_OMM_VERS = 2.0
CREATION_DATE  = 
ORIGINATOR     = 

OBJECT_NAME    = UNKNOWN
OBJECT_ID      = 
CENTER_NAME    = EARTH
REF_FRAME      = TEME
TIME_SYSTEM    = UTC
MEAN_ELEMENT_THEORY = SGP/SGP4

EPOCH          = 2025-12-06T22:58:43.053600
MEAN_MOTION    = 12.91528899
ECCENTRICITY   = .05652129
INCLINATION    = 31.9968
RA_OF_ASC_NODE = 66.4341
ARG_OF_PERICENTER = 297.1458
MEAN_ANOMALY   = 57.2594

EPHEMERIS_TYPE = 0
CLASSIFICATION_TYPE = U
NORAD_CAT_ID   = 270007
ELEMENT_SET_NO = 999
REV_AT_EPOCH   = 28481
BSTAR          = .37934799E-3
MEAN_MOTION_DOT = .238E-5
MEAN_MOTION_DDOT = 0

CCSDS_OMM_VERS = 2.0
CREATION_DATE  = 
ORIGINATOR     = 

OBJECT_NAME    = UNKNOWN
OBJECT_ID      = 
CENTER_NAME    = EARTH
REF_FRAME      = TEME
TIME_SYSTEM    = UTC
MEAN_ELEMENT_THEORY = SGP/SGP4

EPOCH          = 2025-11-26T10:14:04.396992
MEAN_MOTION    = 12.97584605
ECCENTRICITY   = .00329447
INCLINATION    = 90.2678
RA_OF_ASC_NODE = 23.0652
ARG_OF_PERICENTER = 234.6584
MEAN_ANOMALY   = 125.1456

EPHEMERIS_TYPE = 0
CLASSIFICATION_TYPE = U
NORAD_CAT_ID   = 270008
ELEMENT_SET_NO = 999
REV_AT_EPOCH   = 28416
BSTAR          = .93226048E-3
MEAN_MOTION_DOT = .279E-5
MEAN_MOTION_DDOT = 0

CCSDS_OMM_VERS = 2.0
CREATION_DATE  = 
ORIGINATOR     = 

OBJECT_NAME    = UNKNOWN
OBJECT_ID      = 
CENTER_NAME    = EARTH
REF_FRAME      = TEME
TIME_SYSTEM    = UTC
MEAN_ELEMENT_THEORY = SGP/SGP4

EPOCH          = 2025-11-25T09:24:59.567904
MEAN_MOTION    = 11.90738036
ECCENTRICITY   = .00518497
INCLINATION    = 82.5035
RA_OF_ASC_NODE = 218.2171
ARG_OF_PERICENTER = 118.7454
MEAN_ANOMALY   = 241.8818

EPHEMERIS_TYPE = 0
CLASSIFICATION_TYPE = U
NORAD_CAT_ID   = 270009
ELEMENT_SET_NO = 999
REV_AT_EPOCH   = 26075
BSTAR          = .59700463E-3
MEAN_MOTION_DOT = .52E-6
MEAN_MOTION_DDOT = 0

CCSDS_OMM_VERS = 2.0
CREATION_DATE  = 
ORIGINATOR     = 

OBJECT_NAME    = UNKNOWN
OBJECT_ID      = 
CENTER_NAME    = EARTH
REF_FRAME      = TEME
TIME_SYSTEM    = UTC
MEAN_ELEMENT_THEORY = SGP/SGP4

EPOCH          = 2025-12-09T06:02:03.709248
MEAN_MOTION    = 12.80170874
ECCENTRICITY   = .03303173
INCLINATION    = 103.8922
RA_OF_ASC_NODE = 342.7041
ARG_OF_PERICENTER = 138.1742
MEAN_ANOMALY   = 224.5087

EPHEMERIS_TYPE = 0
CLASSIFICATION_TYPE = U
NORAD_CAT_ID   = 270010
ELEMENT_SET_NO = 999
REV_AT_EPOCH   = 27991
BSTAR          = .18929207E-1
MEAN_MOTION_DOT = .5377E-4
MEAN_MOTION_DDOT = 0

CCSDS_OMM_VERS = 2.0
CREATION_DATE  = 
ORIGINATOR     = 

OBJECT_NAME    = UNKNOWN
OBJECT_ID      = 
CENTER_NAME    = EARTH
REF_FRAME      = TEME
TIME_SYSTEM    = UTC
MEAN_ELEMENT_THEORY = SGP/SGP4

EPOCH          = 2025-12-08T08:20:57.322752
MEAN_MOTION    = 13.54837147
ECCENTRICITY   = .00993649
INCLINATION    = 101.0639
RA_OF_ASC_NODE = 266.0459
ARG_OF_PERICENTER = 354.7363
MEAN_ANOMALY   = 5.2717

EPHEMERIS_TYPE = 0
CLASSIFICATION_TYPE = U
NORAD_CAT_ID   = 270011
ELEMENT_SET_NO = 999
REV_AT_EPOCH   = 29083
BSTAR          = .38118718E-1
MEAN_MOTION_DOT = .27055E-3
MEAN_MOTION_DDOT = 0

CCSDS_OMM_VERS = 2.0
CREATION_DATE  = 
ORIGINATOR     = 

OBJECT_NAME    = UNKNOWN
OBJECT_ID      = 
CENTER_NAME    = EARTH
REF_FRAME      = TEME
TIME_SYSTEM    = UTC
MEAN_ELEMENT_THEORY = SGP/SGP4

EPOCH          = 2025-12-08T18:59:35.892096
MEAN_MOTION    = 12.97023644
ECCENTRICITY   = .00334404
INCLINATION    = 90.2290
RA_OF_ASC_NODE = 355.1659
ARG_OF_PERICENTER = 214.4010
MEAN_ANOMALY   = 145.4946

EPHEMERIS_TYPE = 0
CLASSIFICATION_TYPE = U
NORAD_CAT_ID   = 270012
ELEMENT_SET_NO = 999
REV_AT_EPOCH   = 28566
BSTAR          = .21483245E-2
MEAN_MOTION_DOT = .628E-5
MEAN_MOTION_DDOT = 0

CCSDS_OMM_VERS = 2.0
CREATION_DATE  = 
ORIGINATOR     = 

OBJECT_NAME    = UNKNOWN
OBJECT_ID      = 
CENTER_NAME    = EARTH
REF_FRAME      = TEME
TIME_SYSTEM    = UTC
MEAN_ELEMENT_THEORY = SGP/SGP4

EPOCH          = 2025-12-08T15:50:55.439232
MEAN_MOTION    = 12.16555085
ECCENTRICITY   = .0153805
INCLINATION    = 102.6767
RA_OF_ASC_NODE = 306.3282
ARG_OF_PERICENTER = 210.3403
MEAN_ANOMALY   = 148.8671

EPHEMERIS_TYPE = 0
CLASSIFICATION_TYPE = U
NORAD_CAT_ID   = 270013
ELEMENT_SET_NO = 999
REV_AT_EPOCH   = 26804
BSTAR          = .27378738E-3
MEAN_MOTION_DOT = -.17E-6
MEAN_MOTION_DDOT = 0

CCSDS_OMM_VERS = 2.0
CREATION_DATE  = 
ORIGINATOR     = 

OBJECT_NAME    = UNKNOWN
OBJECT_ID      = 
CENTER_NAME    = EARTH
REF_FRAME      = TEME
TIME_SYSTEM    = UTC
MEAN_ELEMENT_THEORY = SGP/SGP4

EPOCH          = 2025-12-07T16:25:23.124288
MEAN_MOTION    = 12.55052965
ECCENTRICITY   = .00652958
INCLINATION    = 101.8462
RA_OF_ASC_NODE = 321.3127
ARG_OF_PERICENTER = 48.0175
MEAN_ANOMALY   = 312.6435

EPHEMERIS_TYPE = 0
CLASSIFICATION_TYPE = U
NORAD_CAT_ID   = 270014
ELEMENT_SET_NO = 999
REV_AT_EPOCH   = 27629
BSTAR          = .11146685E-2
MEAN_MOTION_DOT = .137E-5
MEAN_MOTION_DDOT = 0

